STARLINK-31519          
1 59546U 24074N   26068.13468203 -.00010659  00000+0 -37859-3 0  9992
2 59546  43.0041 346.3010 0001515 297.9835  62.0863 15.27560711105933
FLOCK 4G-27             
1 62641U 25009AJ  26068.75406453  .00012587  00000+0  47455-3 0  9991
2 62641  97.3976 150.8631 0000756 322.4974  37.6212 15.27199247 63710
